[{"norad_id":"50472","company":"ONEWEB","tle_line2":"2 50472  87.9123  44.0736 0001551 113.9717 246.1577 13.17649013192790","launch_date":"2021-12-27","type":"LEO","tle_line1":"1 50472U 21132D   25340.88614653  .00000122  00000+0  27992-3 0  9998","satellite_name":"ONEWEB-0392"},{"norad_id":"50473","company":"ONEWEB","tle_line2":"2 50473  87.9123  44.0859 0001618 107.5424 252.5884 13.17647416192792","launch_date":"2021-12-27","type":"LEO","tle_line1":"1 50473U 21132E   25340.93521497  .00000112  00000+0  25423-3 0  9994","satellite_name":"ONEWEB-0393"},{"norad_id":"50474","company":"ONEWEB","tle_line2":"2 50474  87.9186  13.6439 0001776 100.9467 259.1865 13.18685212196240","launch_date":"2021-12-27","type":"LEO","tle_line1":"1 50474U 21132F   25340.82679210  .00000059  00000+0  11616-3 0  9999","satellite_name":"ONEWEB-0394"},{"norad_id":"50475","company":"ONEWEB","tle_line2":"2 50475  87.8858  59.3983 0001386 103.0190 257.1092 13.11418671190498","launch_date":"2021-12-27","type":"LEO","tle_line1":"1 50475U 21132G   25340.74658498  .00000463  00000+0  12716-2 0  9996","satellite_name":"ONEWEB-0395"},{"norad_id":"50476","company":"ONEWEB","tle_line2":"2 50476  87.9185  13.7026 0001750  98.4030 261.7300 13.18685084196254","launch_date":"2021-12-27","type":"LEO","tle_line1":"1 50476U 21132H   25340.59256561  .00000106  00000+0  23533-3 0  9999","satellite_name":"ONEWEB-0396"},{"norad_id":"50477","company":"ONEWEB","tle_line2":"2 50477  87.9184  13.6548 0001918 101.2737 258.8611 13.18685934196262","launch_date":"2021-12-27","type":"LEO","tle_line1":"1 50477U 21132J   25340.83504063  .00000022  00000+0  24208-4 0  9998","satellite_name":"ONEWEB-0397"},{"norad_id":"50478","company":"ONEWEB","tle_line2":"2 50478  87.8867  59.3622 0001362  96.0841 264.0442 13.11418099190398","launch_date":"2021-12-27","type":"LEO","tle_line1":"1 50478U 21132K   25340.79065285 -.00000556  00000+0 -16045-2 0  9994","satellite_name":"ONEWEB-0398"},{"norad_id":"50479","company":"ONEWEB","tle_line2":"2 50479  87.8859  59.3487 0001745 121.3608 238.7691 13.11416344190404","launch_date":"2021-12-27","type":"LEO","tle_line1":"1 50479U 21132L   25340.92969211 -.00000188  00000+0 -56712-3 0  9999","satellite_name":"ONEWEB-0399"},{"norad_id":"50480","company":"ONEWEB","tle_line2":"2 50480  87.9185  13.6488 0001624  90.4368 269.6950 13.18685954196250","launch_date":"2021-12-27","type":"LEO","tle_line1":"1 50480U 21132M   25340.81359560  .00000090  00000+0  19431-3 0  9996","satellite_name":"ONEWEB-0400"},{"norad_id":"50481","company":"ONEWEB","tle_line2":"2 50481  87.9182  13.6368 0002010  97.1561 262.9799 13.18684969196267","launch_date":"2021-12-27","type":"LEO","tle_line1":"1 50481U 21132N   25340.85813175  .00000048  00000+0  88133-4 0  9997","satellite_name":"ONEWEB-0401"},{"norad_id":"50482","company":"ONEWEB","tle_line2":"2 50482  87.9184  13.6368 0002471  95.6021 264.5393 13.18680687196288","launch_date":"2021-12-27","type":"LEO","tle_line1":"1 50482U 21132P   25340.82184743  .00000959  00000+0  23996-2 0  9992","satellite_name":"ONEWEB-0402"},{"norad_id":"50483","company":"ONEWEB","tle_line2":"2 50483  87.9185  13.6531 0001689  97.8525 262.2799 13.18684919196248","launch_date":"2021-12-27","type":"LEO","tle_line1":"1 50483U 21132Q   25340.84658442  .00000075  00000+0  15664-3 0  9990","satellite_name":"ONEWEB-0403"},{"norad_id":"50484","company":"ONEWEB","tle_line2":"2 50484  87.8859  59.3921 0001476 115.4015 244.7266 13.11417085190475","launch_date":"2021-12-27","type":"LEO","tle_line1":"1 50484U 21132R   25340.75844800  .00000519  00000+0  14280-2 0  9991","satellite_name":"ONEWEB-0404"}]