[
    {
        "OBJECT_NAME": "ONEWEB-0392",
        "OBJECT_ID": "2021-132D",
        "EPOCH": "2025-12-06T21:16:03.060192",
        "MEAN_MOTION": 13.17649013,
        "ECCENTRICITY": 0.00015517,
        "INCLINATION": 87.9123,
        "RA_OF_ASC_NODE": 44.0736,
        "ARG_OF_PERICENTER": 113.9717,
        "MEAN_ANOMALY": 246.1577,
        "EPHEMERIS_TYPE": 0,
        "CLASSIFICATION_TYPE": "U",
        "NORAD_CAT_ID": 50472,
        "ELEMENT_SET_NO": 999,
        "REV_AT_EPOCH": 19279,
        "BSTAR": 0.00027991532,
        "MEAN_MOTION_DOT": 1.22e-06,
        "MEAN_MOTION_DDOT": 0
    },
    {
        "OBJECT_NAME": "ONEWEB-0393",
        "OBJECT_ID": "2021-132E",
        "EPOCH": "2025-12-06T22:26:42.573408",
        "MEAN_MOTION": 13.17647416,
        "ECCENTRICITY": 0.0001618,
        "INCLINATION": 87.9123,
        "RA_OF_ASC_NODE": 44.0859,
        "ARG_OF_PERICENTER": 107.5424,
        "MEAN_ANOMALY": 252.5884,
        "EPHEMERIS_TYPE": 0,
        "CLASSIFICATION_TYPE": "U",
        "NORAD_CAT_ID": 50473,
        "ELEMENT_SET_NO": 999,
        "REV_AT_EPOCH": 19279,
        "BSTAR": 0.00025422636,
        "MEAN_MOTION_DOT": 1.12e-06,
        "MEAN_MOTION_DDOT": 0
    },
    {
        "OBJECT_NAME": "ONEWEB-0394",
        "OBJECT_ID": "2021-132F",
        "EPOCH": "2025-12-06T19:50:34.837440",
        "MEAN_MOTION": 13.18685212,
        "ECCENTRICITY": 0.00017768,
        "INCLINATION": 87.9186,
        "RA_OF_ASC_NODE": 13.6439,
        "ARG_OF_PERICENTER": 100.9467,
        "MEAN_ANOMALY": 259.1865,
        "EPHEMERIS_TYPE": 0,
        "CLASSIFICATION_TYPE": "U",
        "NORAD_CAT_ID": 50474,
        "ELEMENT_SET_NO": 999,
        "REV_AT_EPOCH": 19624,
        "BSTAR": 0.00011615999,
        "MEAN_MOTION_DOT": 5.9e-07,
        "MEAN_MOTION_DDOT": 0
    },
    {
        "OBJECT_NAME": "ONEWEB-0395",
        "OBJECT_ID": "2021-132G",
        "EPOCH": "2025-12-06T17:55:04.942272",
        "MEAN_MOTION": 13.11418671,
        "ECCENTRICITY": 0.00013864,
        "INCLINATION": 87.8858,
        "RA_OF_ASC_NODE": 59.3983,
        "ARG_OF_PERICENTER": 103.019,
        "MEAN_ANOMALY": 257.1092,
        "EPHEMERIS_TYPE": 0,
        "CLASSIFICATION_TYPE": "U",
        "NORAD_CAT_ID": 50475,
        "ELEMENT_SET_NO": 999,
        "REV_AT_EPOCH": 19049,
        "BSTAR": 0.0012715962,
        "MEAN_MOTION_DOT": 4.63e-06,
        "MEAN_MOTION_DDOT": 0
    },
    {
        "OBJECT_NAME": "ONEWEB-0396",
        "OBJECT_ID": "2021-132H",
        "EPOCH": "2025-12-06T14:13:17.668704",
        "MEAN_MOTION": 13.18685084,
        "ECCENTRICITY": 0.00017504,
        "INCLINATION": 87.9185,
        "RA_OF_ASC_NODE": 13.7026,
        "ARG_OF_PERICENTER": 98.403,
        "MEAN_ANOMALY": 261.73,
        "EPHEMERIS_TYPE": 0,
        "CLASSIFICATION_TYPE": "U",
        "NORAD_CAT_ID": 50476,
        "ELEMENT_SET_NO": 999,
        "REV_AT_EPOCH": 19625,
        "BSTAR": 0.00023533136,
        "MEAN_MOTION_DOT": 1.06e-06,
        "MEAN_MOTION_DDOT": 0
    },
    {
        "OBJECT_NAME": "ONEWEB-0397",
        "OBJECT_ID": "2021-132J",
        "EPOCH": "2025-12-06T20:02:27.510432",
        "MEAN_MOTION": 13.18685934,
        "ECCENTRICITY": 0.00019189,
        "INCLINATION": 87.9184,
        "RA_OF_ASC_NODE": 13.6548,
        "ARG_OF_PERICENTER": 101.2737,
        "MEAN_ANOMALY": 258.8611,
        "EPHEMERIS_TYPE": 0,
        "CLASSIFICATION_TYPE": "U",
        "NORAD_CAT_ID": 50477,
        "ELEMENT_SET_NO": 999,
        "REV_AT_EPOCH": 19626,
        "BSTAR": 2.4208082e-05,
        "MEAN_MOTION_DOT": 2.2e-07,
        "MEAN_MOTION_DDOT": 0
    },
    {
        "OBJECT_NAME": "ONEWEB-0398",
        "OBJECT_ID": "2021-132K",
        "EPOCH": "2025-12-06T18:58:32.406240",
        "MEAN_MOTION": 13.11418099,
        "ECCENTRICITY": 0.0001362,
        "INCLINATION": 87.8867,
        "RA_OF_ASC_NODE": 59.3622,
        "ARG_OF_PERICENTER": 96.0841,
        "MEAN_ANOMALY": 264.0442,
        "EPHEMERIS_TYPE": 0,
        "CLASSIFICATION_TYPE": "U",
        "NORAD_CAT_ID": 50478,
        "ELEMENT_SET_NO": 999,
        "REV_AT_EPOCH": 19039,
        "BSTAR": -0.0016045355,
        "MEAN_MOTION_DOT": -5.56e-06,
        "MEAN_MOTION_DDOT": 0
    },
    {
        "OBJECT_NAME": "ONEWEB-0399",
        "OBJECT_ID": "2021-132L",
        "EPOCH": "2025-12-06T22:18:45.398304",
        "MEAN_MOTION": 13.11416344,
        "ECCENTRICITY": 0.00017457,
        "INCLINATION": 87.8859,
        "RA_OF_ASC_NODE": 59.3487,
        "ARG_OF_PERICENTER": 121.3608,
        "MEAN_ANOMALY": 238.7691,
        "EPHEMERIS_TYPE": 0,
        "CLASSIFICATION_TYPE": "U",
        "NORAD_CAT_ID": 50479,
        "ELEMENT_SET_NO": 999,
        "REV_AT_EPOCH": 19040,
        "BSTAR": -0.0005671224,
        "MEAN_MOTION_DOT": -1.88e-06,
        "MEAN_MOTION_DDOT": 0
    },
    {
        "OBJECT_NAME": "ONEWEB-0400",
        "OBJECT_ID": "2021-132M",
        "EPOCH": "2025-12-06T19:31:34.659840",
        "MEAN_MOTION": 13.18685954,
        "ECCENTRICITY": 0.00016249,
        "INCLINATION": 87.9185,
        "RA_OF_ASC_NODE": 13.6488,
        "ARG_OF_PERICENTER": 90.4368,
        "MEAN_ANOMALY": 269.695,
        "EPHEMERIS_TYPE": 0,
        "CLASSIFICATION_TYPE": "U",
        "NORAD_CAT_ID": 50480,
        "ELEMENT_SET_NO": 999,
        "REV_AT_EPOCH": 19625,
        "BSTAR": 0.00019430627,
        "MEAN_MOTION_DOT": 9e-07,
        "MEAN_MOTION_DDOT": 0
    },
    {
        "OBJECT_NAME": "ONEWEB-0401",
        "OBJECT_ID": "2021-132N",
        "EPOCH": "2025-12-06T20:35:42.583200",
        "MEAN_MOTION": 13.18684969,
        "ECCENTRICITY": 0.00020104,
        "INCLINATION": 87.9182,
        "RA_OF_ASC_NODE": 13.6368,
        "ARG_OF_PERICENTER": 97.1561,
        "MEAN_ANOMALY": 262.9799,
        "EPHEMERIS_TYPE": 0,
        "CLASSIFICATION_TYPE": "U",
        "NORAD_CAT_ID": 50481,
        "ELEMENT_SET_NO": 999,
        "REV_AT_EPOCH": 19626,
        "BSTAR": 8.8133177e-05,
        "MEAN_MOTION_DOT": 4.8e-07,
        "MEAN_MOTION_DDOT": 0
    },
    {
        "OBJECT_NAME": "ONEWEB-0402",
        "OBJECT_ID": "2021-132P",
        "EPOCH": "2025-12-06T19:43:27.617952",
        "MEAN_MOTION": 13.18680687,
        "ECCENTRICITY": 0.00024712,
        "INCLINATION": 87.9184,
        "RA_OF_ASC_NODE": 13.6368,
        "ARG_OF_PERICENTER": 95.6021,
        "MEAN_ANOMALY": 264.5393,
        "EPHEMERIS_TYPE": 0,
        "CLASSIFICATION_TYPE": "U",
        "NORAD_CAT_ID": 50482,
        "ELEMENT_SET_NO": 999,
        "REV_AT_EPOCH": 19628,
        "BSTAR": 0.0023995578,
        "MEAN_MOTION_DOT": 9.59e-06,
        "MEAN_MOTION_DDOT": 0
    },
    {
        "OBJECT_NAME": "ONEWEB-0403",
        "OBJECT_ID": "2021-132Q",
        "EPOCH": "2025-12-06T20:19:04.893888",
        "MEAN_MOTION": 13.18684919,
        "ECCENTRICITY": 0.00016896,
        "INCLINATION": 87.9185,
        "RA_OF_ASC_NODE": 13.6531,
        "ARG_OF_PERICENTER": 97.8525,
        "MEAN_ANOMALY": 262.2799,
        "EPHEMERIS_TYPE": 0,
        "CLASSIFICATION_TYPE": "U",
        "NORAD_CAT_ID": 50483,
        "ELEMENT_SET_NO": 999,
        "REV_AT_EPOCH": 19624,
        "BSTAR": 0.00015663711,
        "MEAN_MOTION_DOT": 7.5e-07,
        "MEAN_MOTION_DDOT": 0
    },
    {
        "OBJECT_NAME": "ONEWEB-0404",
        "OBJECT_ID": "2021-132R",
        "EPOCH": "2025-12-06T18:12:09.907200",
        "MEAN_MOTION": 13.11417085,
        "ECCENTRICITY": 0.00014766,
        "INCLINATION": 87.8859,
        "RA_OF_ASC_NODE": 59.3921,
        "ARG_OF_PERICENTER": 115.4015,
        "MEAN_ANOMALY": 244.7266,
        "EPHEMERIS_TYPE": 0,
        "CLASSIFICATION_TYPE": "U",
        "NORAD_CAT_ID": 50484,
        "ELEMENT_SET_NO": 999,
        "REV_AT_EPOCH": 19047,
        "BSTAR": 0.0014279796,
        "MEAN_MOTION_DOT": 5.19e-06,
        "MEAN_MOTION_DDOT": 0
    }
]